ONEWEB-0645             
1 55809U 23029P   25318.47596117  .00013224  00000+0  33681-1 0  9995
2 55809  87.9214 347.7140 0003248 101.6763 258.4734 13.18242303130584
ONEWEB-0646             
1 55810U 23029Q   25318.49567580  .00000092  00000+0  19748-3 0  9990
2 55810  87.9211 347.7002 0002125  93.2397 266.8979 13.19724257130579
ONEWEB-0648             
1 55811U 23029R   25318.76470524 -.00000326  00000+0 -91403-3 0  9992
2 55811  87.8989 332.4230 0002769 101.0825 259.0616 13.14501962131229
ONEWEB-0649             
1 55812U 23029S   25318.52093462  .00000083  00000+0  17609-3 0  9993
2 55812  87.9217 347.6906 0002315  99.5198 260.6196 13.19727405130614
ONEWEB-0650             
1 55813U 23029T   25318.36454748  .00000101  00000+0  22099-3 0  9994
2 55813  87.9211 347.7295 0002019  94.6010 265.5353 13.19728285130561
ONEWEB-0652             
1 55814U 23029U   25318.74566486  .00000085  00000+0  19403-3 0  9996
2 55814  87.8990 332.4480 0001660  90.6495 269.4825 13.14501483131197
ONEWEB-0653             
1 55815U 23029V   25318.42534532  .00000043  00000+0  82217-4 0  9997
2 55815  87.8994 332.5015 0001703  97.7333 262.3990 13.14504742131189
ONEWEB-0654             
1 55816U 23029W   25318.49670073  .00000172  00000+0  42922-3 0  9997
2 55816  87.8985 332.4863 0001371  92.4354 267.6933 13.14501849131210
